[{"OBJECT_NAME":"STARLINK-6283","OBJECT_ID":"2023-061AJ","EPOCH":"2026-03-09T09:58:56.047008","MEAN_MOTION":15.02521645,"ECCENTRICITY":0.00010296,"INCLINATION":43.0028,"RA_OF_ASC_NODE":185.9368,"ARG_OF_PERICENTER":250.257,"MEAN_ANOMALY":109.8161,"EPHEMERIS_TYPE":0,"CLASSIFICATION_TYPE":"U","NORAD_CAT_ID":56406,"ELEMENT_SET_NO":999,"REV_AT_EPOCH":15686,"BSTAR":2.9084906e-5,"MEAN_MOTION_DOT":1.89e-6,"MEAN_MOTION_DDOT":0},{"OBJECT_NAME":"SL-8 DEB","OBJECT_ID":"1972-043D","EPOCH":"2026-03-09T22:05:55.512096","MEAN_MOTION":15.0117212,"ECCENTRICITY":0.00057803,"INCLINATION":74.0604,"RA_OF_ASC_NODE":30.4168,"ARG_OF_PERICENTER":131.677,"MEAN_ANOMALY":228.4914,"EPHEMERIS_TYPE":0,"CLASSIFICATION_TYPE":"U","NORAD_CAT_ID":6065,"ELEMENT_SET_NO":999,"REV_AT_EPOCH":84295,"BSTAR":0.0010977341,"MEAN_MOTION_DOT":0.00014073,"MEAN_MOTION_DDOT":0}]
